Busstop_code,Name,Name_KANA,Platform_code,Platform_info,UID,ward,longitude,latitude
01013,愛知県図書館,アイチケントショカン,301,1番,01013301,中区,136.894679354,35.1775805518
01013,愛知県図書館,アイチケントショカン,701,2番,01013701,中区,136.894677342,35.1773530943
01055,曙町一丁目,アケボノチョウイッチョウメ,301,,01055301,昭和区,136.926606259,35.1556998306
01055,曙町一丁目,アケボノチョウイッチョウメ,701,,01055701,昭和区,136.926374103,35.1555853544
01060,曙町二丁目,アケボノチョウニチョウメ,300,,01060300,昭和区,136.930456965,35.1556138094
01060,曙町二丁目,アケボノチョウニチョウメ,301,,01060301,昭和区,136.931494115,35.1554310591
01060,曙町二丁目,アケボノチョウニチョウメ,701,,01060701,昭和区,136.930573556,35.1555336003
01140,阿由知通二丁目,アユチドオリニチョウメ,101,,01140101,昭和区,136.934286257,35.1540061775
01140,阿由知通二丁目,アユチドオリニチョウメ,301,,01140301,昭和区,136.935195922,35.1548031636
01140,阿由知通二丁目,アユチドオリニチョウメ,501,,01140501,昭和区,136.934473318,35.1538624767
01140,阿由知通二丁目,アユチドオリニチョウメ,701,,01140701,昭和区,136.935000956,35.1547613789
01185,荒畑,アラハタ,301,1番,01185301,昭和区,136.927084138,35.1497454101
01185,荒畑,アラハタ,701,2番,01185701,昭和区,136.926082732,35.1494952098
02030,石川橋,イシカワバシ,102,4番,02030102,昭和区,136.944769969,35.1392109194
02030,石川橋,イシカワバシ,301,1番,02030301,昭和区,136.945674392,35.138673719
02030,石川橋,イシカワバシ,501,3番,02030501,昭和区,136.944989337,35.139232315
02030,石川橋,イシカワバシ,701,2番,02030701,昭和区,136.946148052,35.1385095891
02200,杁中,イリナカ,300,3番,02200300,昭和区,136.953842017,35.1446526031
02200,杁中,イリナカ,302,1番,02200302,昭和区,136.954584318,35.1440116244
02200,杁中,イリナカ,701,7番,02200701,昭和区,136.95505594,35.1433272066
02200,杁中,イリナカ,702,5番,02200702,昭和区,136.953608258,35.1445659986
02200,杁中,イリナカ,801,,02200801,昭和区,136.955134031,35.1440869806
02200,杁中,イリナカ,802,,02200802,昭和区,136.954112271,35.1446683796
02215,岩井通一丁目,イワイドオリイッチョウメ,301,,02215301,中区,136.893462325,35.1593230222
02215,岩井通一丁目,イワイドオリイッチョウメ,701,,02215701,中区,136.894315736,35.1588151194
04015,恵方町,エホウチョウ,101,,04015101,昭和区,136.933272544,35.1448497167
04015,恵方町,エホウチョウ,501,,04015501,昭和区,136.933680461,35.1461697917
04035,円上,エンジョウ,101,,04035101,昭和区,136.917627689,35.1436529944
04035,円上,エンジョウ,501,,04035501,昭和区,136.918111474,35.1440004645
05020,大池町,オオイケチョウ,301,,05020301,中区,136.910646038,35.1567541315
05020,大池町,オオイケチョウ,701,,05020701,中区,136.911234875,35.1563999222
05025,大井町,オオイチョウ,301,,05025301,中区,136.907741367,35.1501904917
05025,大井町,オオイチョウ,701,,05025701,中区,136.908491135,35.1498604005
05050,大須,オオス,301,,05050301,中区,136.900159301,35.1579196421
05050,大須,オオス,701,,05050701,中区,136.902067995,35.1575288006
05055,大須観音,オオスカンノン,101,2番,05055101,中区,136.898133845,35.159447682
05055,大須観音,オオスカンノン,501,1番,05055501,中区,136.898546905,35.1594146657
05105,大津通,オオツドオリ,101,1番,05105101,中区,136.906160333,35.17529755
05105,大津通,オオツドオリ,501,2番,05105501,中区,136.906158417,35.1758971194
05110,大津橋,オオツバシ,101,,05110101,中区,136.905866491,35.176649919
05110,大津橋,オオツバシ,301,,05110301,中区,136.904526366,35.1782224626
05110,大津橋,オオツバシ,501,,05110501,中区,136.906180583,35.1772562861
05110,大津橋,オオツバシ,701,,05110701,中区,136.904347769,35.1779468278
11002,科学館西,カガクカンニシ,501,,11002501,中区,136.897960681,35.1658413095
11002,科学館西,カガクカンニシ,701,,11002701,中区,136.897057513,35.1661194231
11075,金山,カナヤマ,001,,11075001,中区,136.901950996,35.1433140254
11075,金山,カナヤマ,004,,11075004,中区,136.901899358,35.1434226415
11075,金山,カナヤマ,009,8番,11075009,中区,136.901574206,35.1440870806
11075,金山,カナヤマ,010,,11075010,中区,136.901710381,35.144246125
11075,金山,カナヤマ,101,,11075101,中区,136.902543386,35.1440327923
11075,金山,カナヤマ,012,,11075012,中区,136.902031815,35.1439463775
11075,金山,カナヤマ,013,4番,11075013,中区,136.901871195,35.1437011874
11075,金山,カナヤマ,014,,11075014,中区,136.902139416,35.1434829566
11075,金山,カナヤマ,011,6番,11075011,中区,136.902114905,35.144179908
11175,上前津,カミマエヅ,101,5番,11175101,中区,136.905570622,35.1561274488
11175,上前津,カミマエヅ,102,4番,11175102,中区,136.905874257,35.1583746255
11175,上前津,カミマエヅ,301,1番,11175301,中区,136.904177089,35.157569836
11175,上前津,カミマエヅ,501,3番,11175501,中区,136.906118338,35.1588301942
11175,上前津,カミマエヅ,701,2番,11175701,中区,136.903986652,35.1574053685
11200,上山町,カミヤマチョウ,301,,11200301,昭和区,136.94931023,35.1380005591
11200,上山町,カミヤマチョウ,701,,11200701,昭和区,136.948361399,35.1379956239
11245,川名本町,カワナホンマチ,301,,11245301,昭和区,136.941298131,35.1528451549
11245,川名本町,カワナホンマチ,701,,11245701,昭和区,136.941683028,35.1525479995
11250,川原通,カワハラドオリ,101,4番,11250101,昭和区,136.949494566,35.1522362325
11250,川原通,カワハラドオリ,201,5番,11250201,昭和区,136.95026369,35.1516134063
11250,川原通,カワハラドオリ,301,1番,11250301,昭和区,136.950545992,35.1508496702
11250,川原通,カワハラドオリ,501,3番,11250501,昭和区,136.949797656,35.1524451194
11250,川原通,カワハラドオリ,701,2番,11250701,昭和区,136.94881865,35.1519451057
11255,川原通二丁目,カワハラドオリニチョウメ,101,,11255101,昭和区,136.951761106,35.1562145111
11255,川原通二丁目,カワハラドオリニチョウメ,501,,11255501,昭和区,136.952344486,35.1569266634
11270,瓦町,カワラマチ,101,,11270101,中区,136.914864542,35.1653572607
11270,瓦町,カワラマチ,501,,11270501,中区,136.915309788,35.164965865
12010,菊園町一丁目,キクゾノチョウイッチョウメ,101,,12010101,昭和区,136.938211078,35.1388837194
12010,菊園町一丁目,キクゾノチョウイッチョウメ,501,,12010501,昭和区,136.938331905,35.1382220091
12010,菊園町一丁目,キクゾノチョウイッチョウメ,701,,12010701,昭和区,136.93762966,35.1384804921
12015,菊園町四丁目,キクゾノチョウヨンチョウメ,301,,12015301,昭和区,136.941752189,35.1386604689
12015,菊園町四丁目,キクゾノチョウヨンチョウメ,701,,12015701,昭和区,136.941282802,35.1385957634
14010,県教育会館,ケンキョウイクカイカン,101,,14010101,中区,136.920066064,35.1617943473
14010,県教育会館,ケンキョウイクカイカン,501,,14010501,中区,136.920467724,35.1616463342
15085,御器所通,ゴキソドオリ,102,4番,15085102,昭和区,136.933643321,35.1501769615
15085,御器所通,ゴキソドオリ,301,1番,15085301,昭和区,136.934380928,35.1496253958
15085,御器所通,ゴキソドオリ,302,5番,15085302,昭和区,136.936051284,35.1496537873
15085,御器所通,ゴキソドオリ,501,3番,15085501,昭和区,136.933721775,35.1491873205
15085,御器所通,ゴキソドオリ,700,6番,15085700,昭和区,136.935253317,35.1495129987
15085,御器所通,ゴキソドオリ,701,2番,15085701,昭和区,136.932901212,35.1494288029
15088,御器所二丁目,ゴキソニチョウメ,301,,15088301,昭和区,136.922104718,35.1465070348
15088,御器所二丁目,ゴキソニチョウメ,701,,15088701,昭和区,136.921011047,35.146779539
15090,御器所四丁目,ゴキソヨンチョウメ,301,,15090301,昭和区,136.924760523,35.1458326158
15090,御器所四丁目,ゴキソヨンチョウメ,701,,15090701,昭和区,136.92338522,35.1461391169
21010,栄,サカエ,001,降車,21010001,中区,136.908535019,35.1680934556
21010,栄,サカエ,002,22番,21010002,中区,136.9085345,35.1683059028
21010,栄,サカエ,003,21番,21010003,中区,136.908552703,35.1684975972
21010,栄,サカエ,005,19番,21010005,中区,136.908928212,35.1683002627
21010,栄,サカエ,006,18番,21010006,中区,136.908968445,35.1681369132
21010,栄,サカエ,007,17番,21010007,中区,136.909000183,35.1679751778
21010,栄,サカエ,1E1,降車,210101E1,中区,136.908351091,35.1672822661
21010,栄,サカエ,1E2,25番,210101E2,中区,136.90800697,35.1706449857
21010,栄,サカエ,1W1,23番,210101W1,中区,136.90651436,35.1712559304
21010,栄,サカエ,3N3,降車,210103N3,中区,136.908648489,35.1701804627
21010,栄,サカエ,3S2,降車,210103S2,中区,136.907811841,35.1690454187
21010,栄,サカエ,3S3,14番,210103S3,中区,136.908651372,35.169143537
21010,栄,サカエ,3S4,降車,210103S4,中区,136.908855891,35.1691594332
21010,栄,サカエ,3S5,12番,210103S5,中区,136.909665918,35.169166011
21010,栄,サカエ,3S6,11番,210103S6,中区,136.909859707,35.1691791665
21010,栄,サカエ,5W3,北)(降車,210105W3,中区,136.906819674,35.1702716124
21010,栄,サカエ,7S1,降車,210107S1,中区,136.910114903,35.1690388082
21010,栄,サカエ,7S4,16番,210107S4,中区,136.908733566,35.1689138306
21010,栄,サカエ,7S5,15番,210107S5,中区,136.9085324,35.1688995787
21012,栄大津,サカエオオツ,101,5番,21012101,中区,136.906974828,35.1675627138
21012,栄大津,サカエオオツ,102,4番,21012102,中区,136.906888327,35.16805715
21012,栄大津,サカエオオツ,501,3番,21012501,中区,136.907092175,35.1682961447
21012,栄大津,サカエオオツ,502,2番,21012502,中区,136.907097539,35.1681251211
21012,栄大津,サカエオオツ,503,1番,21012503,中区,136.907113633,35.1679738306
21040,桜通大津,サクラドオリオオツ,1W1,5番,210401W1,中区,136.90615278,35.1743347444
21040,桜通大津,サクラドオリオオツ,5W1,3番,210405W1,中区,136.906648839,35.1723797898
21040,桜通大津,サクラドオリオオツ,701,2番,21040701,中区,136.904672871,35.1734084308
21045,桜通伏見,サクラドオリフシミ,301,1番,21045301,中区,136.895550824,35.1729998306
21045,桜通伏見,サクラドオリフシミ,701,2番,21045701,中区,136.895502544,35.1727268662
21050,桜通本町,サクラドオリホンマチ,101,,21050101,中区,136.901559728,35.1741417993
21050,桜通本町,サクラドオリホンマチ,301,,21050301,中区,136.900973665,35.1734095174
21050,桜通本町,サクラドオリホンマチ,501,,21050501,中区,136.901614886,35.1746536556
21050,桜通本町,サクラドオリホンマチ,701,,21050701,中区,136.901048767,35.1731661528
21063,桜山,サクラヤマ,301,2番,21063301,昭和区,136.932039934,35.1408519347
21063,桜山,サクラヤマ,302,1番,21063302,昭和区,136.93430506,35.1409857288
21063,桜山,サクラヤマ,701,4番,21063701,昭和区,136.934321153,35.1408661914
21063,桜山,サクラヤマ,702,3番,21063702,昭和区,136.931849497,35.1407356871
22025,塩付,シオツケ,301,,22025301,昭和区,136.939023881,35.154155389
22025,塩付,シオツケ,701,,22025701,昭和区,136.93902254,35.1541192047
22030,塩付通四丁目,シオツケドオリヨンチョウメ,101,,22030101,昭和区,136.938210386,35.1477947833
22030,塩付通四丁目,シオツケドオリヨンチョウメ,501,,22030501,昭和区,136.938151378,35.1462716186
22035,塩付通五丁目,シオツケドオリゴチョウメ,101,,22035101,昭和区,136.937945399,35.1445538489
22035,塩付通五丁目,シオツケドオリゴチョウメ,301,,22035301,昭和区,136.938364494,35.1440822991
22035,塩付通五丁目,シオツケドオリゴチョウメ,501,,22035501,昭和区,136.938006419,35.143594297
22280,下前津,シモマエヅ,101,,22280101,中区,136.905024887,35.1536835698
22280,下前津,シモマエヅ,501,,22280501,中区,136.905342729,35.1542098887
22280,下前津,シモマエヅ,701,,22280701,中区,136.903788389,35.1549872994
22300,市役所,シヤクショ,101,1番,22300101,中区,136.90538415,35.1814010806
22300,市役所,シヤクショ,102,6番,22300102,中区,136.905195055,35.1811621179
22300,市役所,シヤクショ,301,3番,22300301,中区,136.904775907,35.1804878152
22300,市役所,シヤクショ,501,5番,22300501,中区,136.905665112,35.1809681025
22300,市役所,シヤクショ,701,2番,22300701,中区,136.906006423,35.1821771287
22300,市役所,シヤクショ,702,4番,22300702,中区,136.904566077,35.1817123737
22455,白川公園,シラカワコウエン,302,1番,22455302,中区,136.898838495,35.1627134172
22455,白川公園,シラカワコウエン,701,2番,22455701,中区,136.899525349,35.1620064387
22460,白川通大津,シラカワドオリオオツ,1E2,4番,224601E2,中区,136.908551935,35.1655097921
22460,白川通大津,シラカワドオリオオツ,1W1,5番,224601W1,中区,136.906897385,35.1637923864
22460,白川通大津,シラカワドオリオオツ,5E1,1番,224605E1,中区,136.909616007,35.1646301982
22460,白川通大津,シラカワドオリオオツ,5W1,3番,224605W1,中区,136.907232662,35.1644819971
22460,白川通大津,シラカワドオリオオツ,5W2,2番,224605W2,中区,136.90711939,35.1639342743
22580,新栄町,シンサカエマチ,101,7番,22580101,中区,136.919157195,35.1701978228
22580,新栄町,シンサカエマチ,301,1番,22580301,中区,136.920611964,35.1698793755
22580,新栄町,シンサカエマチ,401,2番,22580401,中区,136.920345336,35.1687896565
22580,新栄町,シンサカエマチ,7S2,4番,225807S2,中区,136.918444238,35.1695844911
22585,新栄三丁目,シンサカエサンチョウメ,301,,22585301,中区,136.9239253,35.1667369283
22585,新栄三丁目,シンサカエサンチョウメ,701,,22585701,中区,136.923406292,35.1669392001
22600,新洲崎橋,シンスザキバシ,101,,22600101,中区,136.892580479,35.1626987857
22600,新洲崎橋,シンスザキバシ,301,,22600301,中区,136.893679948,35.1626185518
22600,新洲崎橋,シンスザキバシ,701,,22600701,中区,136.893850938,35.1619974497
23005,吸場町,スイバチョウ,301,,23005301,中区,136.912620462,35.1503089945
23005,吸場町,スイバチョウ,701,,23005701,昭和区,136.912813581,35.1500474677
23055,洲原町,スハラチョウ,301,,23055301,昭和区,136.921417328,35.1501150074
23055,洲原町,スハラチョウ,701,,23055701,昭和区,136.921413976,35.1498732179
25010,外堀通,ソトボリドオリ,101,5番,25010101,中区,136.901256067,35.1768710239
25010,外堀通,ソトボリドオリ,301,2番,25010301,中区,136.898010594,35.1778005866
25010,外堀通,ソトボリドオリ,302,1番,25010302,中区,136.900041026,35.1779540511
25010,外堀通,ソトボリドオリ,501,4番,25010501,中区,136.901322949,35.1773645575
25010,外堀通,ソトボリドオリ,701,3番,25010701,中区,136.899653945,35.177727941
31095,高辻,タカツジ,101,6番,31095101,昭和区,136.918125475,35.1389510061
31095,高辻,タカツジ,102,5番,31095102,昭和区,136.917979973,35.1411922425
31095,高辻,タカツジ,301,1番,31095301,昭和区,136.91724773,35.1400467631
31095,高辻,タカツジ,302,7番,31095302,昭和区,136.919355946,35.1401602699
31095,高辻,タカツジ,501,4番,31095501,昭和区,136.918320613,35.1414444761
31095,高辻,タカツジ,502,3番,31095502,昭和区,136.918505686,35.139413425
31095,高辻,タカツジ,701,2番,31095701,昭和区,136.917184509,35.139928567
31165,滝川町,タキガワチョウ,301,,31165301,昭和区,136.959453102,35.1455372242
31165,滝川町,タキガワチョウ,701,,31165701,昭和区,136.959067534,35.145393568
31170,滝子,タキコ,301,,31170301,昭和区,136.926084308,35.1405253361
31170,滝子,タキコ,401,,31170401,昭和区,136.926710604,35.1400340227
31170,滝子,タキコ,701,東,31170701,昭和区,136.926699875,35.140454052
31170,滝子,タキコ,702,西,31170702,昭和区,136.92432612,35.1403257404
31175,滝子通二丁目,タキコドオリニチョウメ,301,,31175301,昭和区,136.92204356,35.1403049034
31175,滝子通二丁目,タキコドオリニチョウメ,701,,31175701,昭和区,136.921235545,35.1401541096
31195,橘町,タチバナチョウ,101,,31195101,中区,136.900481227,35.1551636571
31195,橘町,タチバナチョウ,501,,31195501,中区,136.900599244,35.1553478657
31200,竜ケ池,タツガイケ,101,,31200101,昭和区,136.923143745,35.1554538399
31200,竜ケ池,タツガイケ,301,,31200301,昭和区,136.923964501,35.1550508835
31235,檀渓通三丁目,ダンケイドオリサンチョウメ,101,,31235101,昭和区,136.945691461,35.1440123615
31235,檀渓通三丁目,ダンケイドオリサンチョウメ,501,,31235501,昭和区,136.945767234,35.1438665094
32027,地下鉄吹上,チカテツフキアゲ,501,3番,32027501,昭和区,136.935072926,35.1574327236
32090,千早小学校,チハヤショウガッコウ,302,,32090302,中区,136.918135032,35.1614322908
32090,千早小学校,チハヤショウガッコウ,701,,32090701,中区,136.918249025,35.16070428
32138,千代田五丁目,チヨダゴチョウメ,101,,32138101,中区,136.915633608,35.1586325169
32138,千代田五丁目,チヨダゴチョウメ,501,,32138501,中区,136.916155297,35.1579329886
33025,鶴舞公園北口,ツルマコウエンキタグチ,101,5番,33025101,中区,136.918752469,35.1592112778
33025,鶴舞公園北口,ツルマコウエンキタグチ,301,1番,33025301,昭和区,136.919545732,35.1575403062
33025,鶴舞公園北口,ツルマコウエンキタグチ,501,4番,33025501,中区,136.918458757,35.1583554013
33025,鶴舞公園北口,ツルマコウエンキタグチ,701,3番,33025701,中区,136.918459305,35.1578626837
33025,鶴舞公園北口,ツルマコウエンキタグチ,702,2番,33025702,中区,136.917511145,35.1582108042
33030,鶴舞公園前,ツルマコウエンマエ,101,5番,33030101,中区,136.91590577,35.1571693634
33030,鶴舞公園前,ツルマコウエンマエ,201,6番,33030201,中区,136.916659471,35.156798761
33030,鶴舞公園前,ツルマコウエンマエ,501,降車,33030501,中区,136.916280659,35.1570822651
33030,鶴舞公園前,ツルマコウエンマエ,502,2番,33030502,中区,136.916666163,35.1549470034
33030,鶴舞公園前,ツルマコウエンマエ,503,3番,33030503,昭和区,136.916753335,35.1546191539
33030,鶴舞公園前,ツルマコウエンマエ,701,1番,33030701,中区,136.914808273,35.1560901488
34000,出口町,デグチチョウ,301,,34000301,昭和区,136.929755076,35.144829096
34000,出口町,デグチチョウ,701,,34000701,昭和区,136.928888051,35.1449135358
34021,天王崎橋東,テンノウザキバシヒガシ,301,,34021301,中区,136.893336022,35.1660349046
34021,天王崎橋東,テンノウザキバシヒガシ,501,,34021501,中区,136.892405295,35.1656457048
35025,東郊通一丁目,トウコウドオリイッチョウメ,101,,35025101,昭和区,136.91696104,35.1513906564
35025,東郊通一丁目,トウコウドオリイッチョウメ,501,,35025501,昭和区,136.917270165,35.1514098457
35030,東郊通二丁目,トウコウドオリニチョウメ,301,,35030301,昭和区,136.91627494,35.1504068183
35030,東郊通二丁目,トウコウドオリニチョウメ,701,,35030701,昭和区,136.91827418,35.1501059554
35030,東郊通二丁目,トウコウドオリニチョウメ,702,,35030702,昭和区,136.916089521,35.1501580415
35035,東郊通三丁目,トウコウドオリサンチョウメ,101,,35035101,昭和区,136.917261368,35.1484013712
35035,東郊通三丁目,トウコウドオリサンチョウメ,301,,35035301,昭和区,136.918414489,35.1472044444
35035,東郊通三丁目,トウコウドオリサンチョウメ,501,,35035501,昭和区,136.917624764,35.1481418515
35035,東郊通三丁目,トウコウドオリサンチョウメ,701,,35035701,昭和区,136.916591443,35.1470584272
35037,東新町,トウシンチョウ,301,1番,35037301,中区,136.916116341,35.1695759405
35037,東新町,トウシンチョウ,501,4番,35037501,中区,136.914946897,35.1677100385
35037,東新町,トウシンチョウ,7S1,3番,350377S1,中区,136.913598444,35.1692589219
41095,長戸町,ナガトチョウ,301,,41095301,昭和区,136.941505916,35.1442588019
41095,長戸町,ナガトチョウ,701,,41095701,昭和区,136.941553525,35.1442248064
41185,流町,ナガレマチ,101,,41185101,中区,136.906323162,35.1446303716
41185,流町,ナガレマチ,701,,41185701,中区,136.905072142,35.1441577757
41215,名古屋城正門前,ナゴヤジョウセイモンマエ,301,,41215301,中区,136.897888072,35.18304585
41215,名古屋城正門前,ナゴヤジョウセイモンマエ,701,,41215701,中区,136.897158741,35.1828477956
41220,名古屋市美術館東　　　　,ナゴヤシビジュツカンヒガシ,101,,41220101,中区,136.902257575,35.1636514259
41220,名古屋市美術館東　　　　,ナゴヤシビジュツカンヒガシ,501,,41220501,中区,136.902414484,35.1640526952
41236,ナディアパーク,ナディアパーク,101,,41236101,中区,136.907126397,35.166388152
41236,ナディアパーク,ナディアパーク,501,,41236501,中区,136.907236367,35.1663541658
41245,納屋橋,ナヤバシ,301,,41245301,中区,136.894064423,35.1680942549
41245,納屋橋,ナヤバシ,701,,41245701,中区,136.892925155,35.167899112
42015,西大須,ニシオオス,301,,42015301,中区,136.896983432,35.1584928489
42015,西大須,ニシオオス,701,,42015701,中区,136.897617104,35.1582028409
42060,西白山町,ニシハクサンチョウ,101,,42060101,中区,136.919615264,35.1656965951
42060,西白山町,ニシハクサンチョウ,501,,42060501,中区,136.919953222,35.1659849319
51075,巾下橋,ハバシタバシ,301,,51075301,中区,136.897219398,35.1813945592
51075,巾下橋,ハバシタバシ,701,,51075701,中区,136.89532844,35.1814800571
51110,半僧坊前,ハンソウボウマエ,301,,51110301,昭和区,136.958465342,35.1409608274
51110,半僧坊前,ハンソウボウマエ,701,,51110701,昭和区,136.959185515,35.1401777993
52090,東別院前,ヒガシベツインマエ,102,7番,52090102,中区,136.904271047,35.1512859936
52090,東別院前,ヒガシベツインマエ,302,5番,52090302,中区,136.905566615,35.150111699
52090,東別院前,ヒガシベツインマエ,501,3番,52090501,中区,136.904290398,35.1507576578
52090,東別院前,ヒガシベツインマエ,700,6番,52090700,中区,136.90496284,35.1497846208
52150,雲雀ケ岡,ヒバリガオカ,301,,52150301,昭和区,136.959090701,35.1358938637
52150,雲雀ケ岡,ヒバリガオカ,701,,52150701,昭和区,136.957345805,35.1358750704
52307,広小路車道,ヒロコウジクルマミチ,301,,52307301,中区,136.925339341,35.1698393606
52307,広小路車道,ヒロコウジクルマミチ,701,,52307701,中区,136.926737322,35.169404731
52309,広小路栄,ヒロコウジサカエ,301,3番,52309301,中区,136.90496331,35.1688494518
52309,広小路栄,ヒロコウジサカエ,302,2番,52309302,中区,136.905121099,35.1688612444
52309,広小路栄,ヒロコウジサカエ,303,1番,52309303,中区,136.905384944,35.168882462
52309,広小路栄,ヒロコウジサカエ,701,6番,52309701,中区,136.905285883,35.1686750955
52309,広小路栄,ヒロコウジサカエ,702,5番,52309702,中区,136.905090965,35.1686595974
52309,広小路栄,ヒロコウジサカエ,703,4番,52309703,中区,136.904894352,35.1686478752
52310,広小路伏見,ヒロコウジフシミ,301,1番,52310301,中区,136.896058624,35.1682392156
52310,広小路伏見,ヒロコウジフシミ,302,4番,52310302,中区,136.898332958,35.1683881979
52310,広小路伏見,ヒロコウジフシミ,701,3番,52310701,中区,136.898991709,35.168238503
52310,広小路伏見,ヒロコウジフシミ,702,2番,52310702,中区,136.895659873,35.168017368
52315,広小路本町,ヒロコウジホンマチ,100,6番,52315100,中区,136.902192234,35.1677218274
52315,広小路本町,ヒロコウジホンマチ,101,5番,52315101,中区,136.902066737,35.1690257383
52315,広小路本町,ヒロコウジホンマチ,301,2番,52315301,中区,136.90041966,35.1685339943
52315,広小路本町,ヒロコウジホンマチ,302,7番,52315302,中区,136.902720911,35.1686888981
52315,広小路本町,ヒロコウジホンマチ,500,1番,52315500,中区,136.902205801,35.1691623228
52315,広小路本町,ヒロコウジホンマチ,501,4番,52315501,中区,136.902347139,35.1678059709
52315,広小路本町,ヒロコウジホンマチ,701,3番,52315701,中区,136.901334983,35.1683935132
52320,広路小学校,ヒロジショウガッコウ,101,4番,52320101,昭和区,136.948217236,35.150027005
52320,広路小学校,ヒロジショウガッコウ,301,1番,52320301,昭和区,136.947573726,35.1497837239
52320,広路小学校,ヒロジショウガッコウ,501,3番,52320501,昭和区,136.94871793,35.1505288999
52325,広路通一丁目,ヒロジドオリイッチョウメ,301,,52325301,昭和区,136.938789042,35.1496335858
52325,広路通一丁目,ヒロジドオリイッチョウメ,501,,52325501,昭和区,136.938416752,35.1486502492
52325,広路通一丁目,ヒロジドオリイッチョウメ,701,,52325701,昭和区,136.937935622,35.1494680088
52330,広路通五丁目,ヒロジドオリゴチョウメ,301,,52330301,昭和区,136.943482923,35.1495078479
52330,広路通五丁目,ヒロジドオリゴチョウメ,701,,52330701,昭和区,136.942444323,35.1494576522
52340,広見町,ヒロミチョウ,301,,52340301,昭和区,136.92906503,35.1407235576
52340,広見町,ヒロミチョウ,701,,52340701,昭和区,136.929288321,35.1405617709
53010,吹上,フキアゲ,101,,53010101,昭和区,136.928712168,35.1581727658
53015,福江二丁目,フクエニチョウメ,301,,53015301,昭和区,136.91412575,35.1470033182
53015,福江二丁目,フクエニチョウメ,701,,53015701,昭和区,136.912894136,35.1468604164
53025,袋町通本町,フクロマチドオリホンマチ,101,,53025101,中区,136.901850355,35.1710512702
53025,袋町通本町,フクロマチドオリホンマチ,501,,53025501,中区,136.902012629,35.1709591838
53040,藤成通一丁目,フジナリドオリイッチョウメ,101,,53040101,昭和区,136.938170967,35.1417415418
53040,藤成通一丁目,フジナリドオリイッチョウメ,301,,53040301,昭和区,136.938774851,35.1412533616
53040,藤成通一丁目,フジナリドオリイッチョウメ,501,,53040501,昭和区,136.938345819,35.1407178206
53040,藤成通一丁目,フジナリドオリイッチョウメ,701,,53040701,昭和区,136.937867715,35.1410287276
53045,藤成通五丁目,フジナリドオリゴチョウメ,301,,53045301,昭和区,136.942880139,35.1414776067
53045,藤成通五丁目,フジナリドオリゴチョウメ,701,,53045701,昭和区,136.943721011,35.1413503933
53100,古沢町,フルザワチョウ,101,,53100101,中区,136.903111296,35.1474873543
53100,古沢町,フルザワチョウ,501,,53100501,中区,136.90315714,35.1464346605
53105,古渡町,フルワタリチョウ,101,,53105101,中区,136.898808873,35.1490282218
53105,古渡町,フルワタリチョウ,501,,53105501,中区,136.899233939,35.1491026647
53107,古渡町北,フルワタリチョウキタ,3N1,,531073N1,中区,136.89937182,35.15373862
53107,古渡町北,フルワタリチョウキタ,501,,53107501,中区,136.899247517,35.152710858
54060,弁天前,ベンテンマエ,301,,54060301,昭和区,136.944209924,35.1504272432
54060,弁天前,ベンテンマエ,701,,54060701,昭和区,136.944712934,35.1500628131
61005,前山町,マエヤマチョウ,301,,61005301,昭和区,136.956776022,35.1532881484
61005,前山町,マエヤマチョウ,701,,61005701,昭和区,136.956464503,35.1533960976
61017,正木,マサキ,101,,61017101,中区,136.898927695,35.1451027291
61017,正木,マサキ,501,,61017501,中区,136.899352485,35.1441632938
61060,丸田町,マルタマチ,101,,61060101,中区,136.915145448,35.1632568196
61060,丸田町,マルタマチ,301,,61060301,中区,136.914229813,35.1618756244
61060,丸田町,マルタマチ,501,,61060501,中区,136.915841607,35.1605090579
61060,丸田町,マルタマチ,701,,61060701,中区,136.91471074,35.1610504867
62054,三ツ蔵通本町,ミツクラドオリホンマチ,501,,62054501,中区,136.902610528,35.1660681722
62089,緑町,ミドリマチ,101,,62089101,昭和区,136.930030704,35.1517035681
62089,緑町,ミドリマチ,501,,62089501,昭和区,136.929973037,35.150911871
62135,南山,ミナミヤマ,301,,62135301,昭和区,136.953441714,35.1379775696
62135,南山,ミナミヤマ,701,,62135701,昭和区,136.953742475,35.1377777093
62140,宮裏,ミヤウラ,301,,62140301,昭和区,136.946560474,35.1535241032
62140,宮裏,ミヤウラ,701,,62140701,昭和区,136.944981994,35.1542993275
62185,妙見町,ミョウケンチョウ,301,,62185301,昭和区,136.967875975,35.1463622623
62185,妙見町,ミョウケンチョウ,701,,62185701,昭和区,136.96816138,35.1462603099
63000,向田町,ムカイダチョウ,301,,63000301,中区,136.909434603,35.1468527444
63000,向田町,ムカイダチョウ,501,,63000501,中区,136.908297304,35.1464519379
64013,名城病院,メイジョウビョウイン,3N1,,640133N1,中区,136.900813276,35.1816893269
64013,名城病院,メイジョウビョウイン,3S1,,640133S1,中区,136.901150781,35.1802319759
64013,名城病院,メイジョウビョウイン,501,,64013501,中区,136.900438886,35.1809141818
64013,名城病院,メイジョウビョウイン,701,,64013701,中区,136.899576025,35.1812393633
64025,名大病院,メイダイビョウイン,301,,64025301,昭和区,136.921299661,35.1569734058
64025,名大病院,メイダイビョウイン,701,,64025701,昭和区,136.920519049,35.157091361
71035,八雲町,ヤグモチョウ,301,,71035301,昭和区,136.963539736,35.1526817752
71035,八雲町,ヤグモチョウ,701,,71035701,昭和区,136.962745131,35.1526225634
71040,八事,ヤゴト,101,7番,71040101,昭和区,136.9652346,35.1376173795
71040,八事,ヤゴト,202,8番,71040202,昭和区,136.963063351,35.1364625275
71040,八事,ヤゴト,301,2番,71040301,昭和区,136.963189415,35.1377511789
71040,八事,ヤゴト,501,6番,71040501,昭和区,136.965229235,35.1374227119
71040,八事,ヤゴト,601,5番,71040601,昭和区,136.963122498,35.1362982206
71040,八事,ヤゴト,702,3番,71040702,昭和区,136.963431185,35.137325192
71060,八事日赤病院,ヤゴトニッセキビョウイン,101,4番,71060101,昭和区,136.964940372,35.1444177007
71060,八事日赤病院,ヤゴトニッセキビョウイン,301,1番,71060301,昭和区,136.965143811,35.1467041694
71060,八事日赤病院,ヤゴトニッセキビョウイン,501,3番,71060501,昭和区,136.965082081,35.1445564778
71060,八事日赤病院,ヤゴトニッセキビョウイン,701,2番,71060701,昭和区,136.963336634,35.1464656783
71085,安田通,ヤスダドオリ,301,,71085301,昭和区,136.942937638,35.1557641882
71085,安田通,ヤスダドオリ,701,,71085701,昭和区,136.941236361,35.1566121675
71145,矢場町,ヤバチョウ,1E1,6番,711451E1,中区,136.908559521,35.1634082989
71145,矢場町,ヤバチョウ,1W1,7番,711451W1,中区,136.905993683,35.1604614194
71145,矢場町,ヤバチョウ,301,1番,71145301,中区,136.90742593,35.1626121744
71145,矢場町,ヤバチョウ,5E1,4番,711455E1,中区,136.909623105,35.1631015542
71145,矢場町,ヤバチョウ,5W1,5番,711455W1,中区,136.906523272,35.1613909479
71145,矢場町,ヤバチョウ,701,3番,71145701,中区,136.909198706,35.1616178823
71145,矢場町,ヤバチョウ,702,2番,71145702,中区,136.905759513,35.1619413376
71185,山手通一丁目,ヤマテドオリイッチョウメ,101,,71185101,昭和区,136.965685341,35.1502548467
71185,山手通一丁目,ヤマテドオリイッチョウメ,501,,71185501,昭和区,136.965922939,35.1503169433
71187,山手通二丁目,ヤマテドオリニチョウメ,101,,71187101,昭和区,136.964732018,35.1470955804
71187,山手通二丁目,ヤマテドオリニチョウメ,501,,71187501,昭和区,136.965059911,35.1474185366
71190,山手通四丁目,ヤマテドオリヨンチョウメ,101,,71190101,昭和区,136.965843341,35.1421310711
71190,山手通四丁目,ヤマテドオリヨンチョウメ,501,,71190501,昭和区,136.96602372,35.1421875489
71195,山手通五丁目,ヤマテドオリゴチョウメ,101,,71195101,昭和区,136.967087111,35.1390560216
71195,山手通五丁目,ヤマテドオリゴチョウメ,501,,71195501,昭和区,136.967246703,35.1388893233
71200,山中,ヤマナカ,101,,71200101,昭和区,136.95099084,35.1487858247
71200,山中,ヤマナカ,501,,71200501,昭和区,136.951566173,35.1477407894
71215,山花町,ヤマハナチョウ,101,,71215101,昭和区,136.952986227,35.152597077
71215,山花町,ヤマハナチョウ,501,,71215501,昭和区,136.953418063,35.1526688988
81000,楽園町,ラクエンチョウ,301,,81000301,昭和区,136.960211419,35.1519968652
81000,楽園町,ラクエンチョウ,701,,81000701,昭和区,136.959577944,35.1518232972
91015,若宮,ワカミヤ,302,,91015302,中区,136.90289249,35.162762139
91015,若宮,ワカミヤ,701,,91015701,中区,136.90288042,35.1619891882
